[{"OBJECT_NAME":"STARLINK-5450","OBJECT_ID":"2022-175W","EPOCH":"2025-10-22T06:44:58.156224","MEAN_MOTION":15.08837363,"ECCENTRICITY":0.00014106,"INCLINATION":53.2162,"RA_OF_ASC_NODE":290.5262,"ARG_OF_PERICENTER":91.5574,"MEAN_ANOMALY":268.558,"EPHEMERIS_TYPE":0,"CLASSIFICATION_TYPE":"U","NORAD_CAT_ID":54778,"ELEMENT_SET_NO":999,"REV_AT_EPOCH":15923,"BSTAR":0.00016519565,"MEAN_MOTION_DOT":2.342e-5,"MEAN_MOTION_DDOT":0},{"OBJECT_NAME":"STARLINK-5447","OBJECT_ID":"2022-175X","EPOCH":"2025-10-22T06:50:16.073664","MEAN_MOTION":15.08837826,"ECCENTRICITY":0.00014042,"INCLINATION":53.217,"RA_OF_ASC_NODE":290.5495,"ARG_OF_PERICENTER":86.0212,"MEAN_ANOMALY":274.094,"EPHEMERIS_TYPE":0,"CLASSIFICATION_TYPE":"U","NORAD_CAT_ID":54779,"ELEMENT_SET_NO":999,"REV_AT_EPOCH":15923,"BSTAR":9.1169221e-5,"MEAN_MOTION_DOT":1.163e-5,"MEAN_MOTION_DDOT":0},{"OBJECT_NAME":"STARLINK-5449","OBJECT_ID":"2022-175Y","EPOCH":"2025-10-22T09:34:29.932320","MEAN_MOTION":15.08835203,"ECCENTRICITY":0.0001334,"INCLINATION":53.2161,"RA_OF_ASC_NODE":289.8361,"ARG_OF_PERICENTER":88.2311,"MEAN_ANOMALY":271.8834,"EPHEMERIS_TYPE":0,"CLASSIFICATION_TYPE":"U","NORAD_CAT_ID":54780,"ELEMENT_SET_NO":999,"REV_AT_EPOCH":15925,"BSTAR":-0.00018086,"MEAN_MOTION_DOT":-3.165e-5,"MEAN_MOTION_DDOT":0},{"OBJECT_NAME":"STARLINK-5443","OBJECT_ID":"2022-175Z","EPOCH":"2025-10-22T09:50:27.640032","MEAN_MOTION":15.08809314,"ECCENTRICITY":0.0001452,"INCLINATION":53.2172,"RA_OF_ASC_NODE":289.901,"ARG_OF_PERICENTER":70.8429,"MEAN_ANOMALY":289.272,"EPHEMERIS_TYPE":0,"CLASSIFICATION_TYPE":"U","NORAD_CAT_ID":54781,"ELEMENT_SET_NO":999,"REV_AT_EPOCH":15925,"BSTAR":-0.00014288,"MEAN_MOTION_DOT":-2.559e-5,"MEAN_MOTION_DDOT":0},{"OBJECT_NAME":"STARLINK-5439","OBJECT_ID":"2022-175AB","EPOCH":"2025-10-22T06:34:21.349344","MEAN_MOTION":15.08836665,"ECCENTRICITY":0.0001418,"INCLINATION":53.2172,"RA_OF_ASC_NODE":290.4784,"ARG_OF_PERICENTER":93.9576,"MEAN_ANOMALY":266.1579,"EPHEMERIS_TYPE":0,"CLASSIFICATION_TYPE":"U","NORAD_CAT_ID":54783,"ELEMENT_SET_NO":999,"REV_AT_EPOCH":15923,"BSTAR":7.8494118e-5,"MEAN_MOTION_DOT":9.61e-6,"MEAN_MOTION_DDOT":0},{"OBJECT_NAME":"STARLINK-5442","OBJECT_ID":"2022-175AC","EPOCH":"2025-10-22T07:43:52.264416","MEAN_MOTION":15.08842015,"ECCENTRICITY":0.00015373,"INCLINATION":53.2169,"RA_OF_ASC_NODE":305.037,"ARG_OF_PERICENTER":100.618,"MEAN_ANOMALY":259.4985,"EPHEMERIS_TYPE":0,"CLASSIFICATION_TYPE":"U","NORAD_CAT_ID":54784,"ELEMENT_SET_NO":999,"REV_AT_EPOCH":15903,"BSTAR":0.00025903477,"MEAN_MOTION_DOT":3.837e-5,"MEAN_MOTION_DDOT":0},{"OBJECT_NAME":"STARLINK-5440","OBJECT_ID":"2022-175AD","EPOCH":"2025-10-22T06:07:50.818656","MEAN_MOTION":15.08837108,"ECCENTRICITY":0.00013638,"INCLINATION":53.2178,"RA_OF_ASC_NODE":250.4469,"ARG_OF_PERICENTER":100.4031,"MEAN_ANOMALY":259.7115,"EPHEMERIS_TYPE":0,"CLASSIFICATION_TYPE":"U","NORAD_CAT_ID":54785,"ELEMENT_SET_NO":999,"REV_AT_EPOCH":15979,"BSTAR":8.5787362e-5,"MEAN_MOTION_DOT":1.078e-5,"MEAN_MOTION_DDOT":0},{"OBJECT_NAME":"STARLINK-5441","OBJECT_ID":"2022-175AF","EPOCH":"2025-10-22T10:49:20.066880","MEAN_MOTION":15.088325,"ECCENTRICITY":0.000137,"INCLINATION":53.2175,"RA_OF_ASC_NODE":304.4176,"ARG_OF_PERICENTER":83.7873,"MEAN_ANOMALY":276.3275,"EPHEMERIS_TYPE":0,"CLASSIFICATION_TYPE":"U","NORAD_CAT_ID":54787,"ELEMENT_SET_NO":999,"REV_AT_EPOCH":15905,"BSTAR":2.9019e-5,"MEAN_MOTION_DOT":1.74e-6,"MEAN_MOTION_DDOT":0},{"OBJECT_NAME":"STARLINK-5399","OBJECT_ID":"2022-175AG","EPOCH":"2025-10-22T06:18:26.100576","MEAN_MOTION":15.08835696,"ECCENTRICITY":0.00013889,"INCLINATION":53.2168,"RA_OF_ASC_NODE":290.4102,"ARG_OF_PERICENTER":95.8307,"MEAN_ANOMALY":264.2843,"EPHEMERIS_TYPE":0,"CLASSIFICATION_TYPE":"U","NORAD_CAT_ID":54788,"ELEMENT_SET_NO":999,"REV_AT_EPOCH":15923,"BSTAR":9.8442324e-5,"MEAN_MOTION_DOT":1.279e-5,"MEAN_MOTION_DDOT":0},{"OBJECT_NAME":"STARLINK-5446","OBJECT_ID":"2022-175AH","EPOCH":"2025-10-22T07:53:08.608704","MEAN_MOTION":15.08835629,"ECCENTRICITY":0.0001435,"INCLINATION":53.2171,"RA_OF_ASC_NODE":275.0154,"ARG_OF_PERICENTER":94.8989,"MEAN_ANOMALY":265.2167,"EPHEMERIS_TYPE":0,"CLASSIFICATION_TYPE":"U","NORAD_CAT_ID":54789,"ELEMENT_SET_NO":999,"REV_AT_EPOCH":15945,"BSTAR":0.00013935,"MEAN_MOTION_DOT":1.93e-5,"MEAN_MOTION_DDOT":0},{"OBJECT_NAME":"STARLINK-5445","OBJECT_ID":"2022-175AJ","EPOCH":"2025-10-22T09:18:35.451648","MEAN_MOTION":15.08840706,"ECCENTRICITY":0.0001339,"INCLINATION":53.2166,"RA_OF_ASC_NODE":289.77,"ARG_OF_PERICENTER":82.193,"MEAN_ANOMALY":277.9214,"EPHEMERIS_TYPE":0,"CLASSIFICATION_TYPE":"U","NORAD_CAT_ID":54790,"ELEMENT_SET_NO":999,"REV_AT_EPOCH":15925,"BSTAR":0.00015279,"MEAN_MOTION_DOT":2.145e-5,"MEAN_MOTION_DDOT":0},{"OBJECT_NAME":"STARLINK-5425","OBJECT_ID":"2022-175AK","EPOCH":"2025-10-22T09:39:48.985056","MEAN_MOTION":15.08840388,"ECCENTRICITY":8.23e-5,"INCLINATION":53.2166,"RA_OF_ASC_NODE":289.8627,"ARG_OF_PERICENTER":64.586,"MEAN_ANOMALY":295.5217,"EPHEMERIS_TYPE":0,"CLASSIFICATION_TYPE":"U","NORAD_CAT_ID":54791,"ELEMENT_SET_NO":999,"REV_AT_EPOCH":15925,"BSTAR":7.2834e-5,"MEAN_MOTION_DOT":8.72e-6,"MEAN_MOTION_DDOT":0},{"OBJECT_NAME":"STARLINK-5431","OBJECT_ID":"2022-175AL","EPOCH":"2025-10-22T10:38:43.217664","MEAN_MOTION":15.08844799,"ECCENTRICITY":0.0001649,"INCLINATION":53.2182,"RA_OF_ASC_NODE":304.3731,"ARG_OF_PERICENTER":90.8353,"MEAN_ANOMALY":269.2828,"EPHEMERIS_TYPE":0,"CLASSIFICATION_TYPE":"U","NORAD_CAT_ID":54792,"ELEMENT_SET_NO":999,"REV_AT_EPOCH":15905,"BSTAR":2.4718e-5,"MEAN_MOTION_DOT":1.05e-6,"MEAN_MOTION_DDOT":0},{"OBJECT_NAME":"STARLINK-5433","OBJECT_ID":"2022-175AM","EPOCH":"2025-10-22T08:05:45.924576","MEAN_MOTION":15.08848717,"ECCENTRICITY":0.0001374,"INCLINATION":53.2163,"RA_OF_ASC_NODE":280.2211,"ARG_OF_PERICENTER":88.0684,"MEAN_ANOMALY":272.0466,"EPHEMERIS_TYPE":0,"CLASSIFICATION_TYPE":"U","NORAD_CAT_ID":54793,"ELEMENT_SET_NO":999,"REV_AT_EPOCH":15938,"BSTAR":0.00012259,"MEAN_MOTION_DOT":1.664e-5,"MEAN_MOTION_DDOT":0},{"OBJECT_NAME":"STARLINK-5436","OBJECT_ID":"2022-175AP","EPOCH":"2025-10-22T06:13:07.688064","MEAN_MOTION":15.08843139,"ECCENTRICITY":0.00013535,"INCLINATION":53.2156,"RA_OF_ASC_NODE":290.3869,"ARG_OF_PERICENTER":82.6649,"MEAN_ANOMALY":277.4497,"EPHEMERIS_TYPE":0,"CLASSIFICATION_TYPE":"U","NORAD_CAT_ID":54795,"ELEMENT_SET_NO":999,"REV_AT_EPOCH":15923,"BSTAR":0.00024519599,"MEAN_MOTION_DOT":3.617e-5,"MEAN_MOTION_DDOT":0},{"OBJECT_NAME":"STARLINK-5415","OBJECT_ID":"2022-175AQ","EPOCH":"2025-10-22T06:02:31.243200","MEAN_MOTION":15.08840509,"ECCENTRICITY":0.00015325,"INCLINATION":53.2171,"RA_OF_ASC_NODE":290.344,"ARG_OF_PERICENTER":90.3647,"MEAN_ANOMALY":269.7521,"EPHEMERIS_TYPE":0,"CLASSIFICATION_TYPE":"U","NORAD_CAT_ID":54796,"ELEMENT_SET_NO":999,"REV_AT_EPOCH":15923,"BSTAR":0.00012903087,"MEAN_MOTION_DOT":1.766e-5,"MEAN_MOTION_DDOT":0}]
