54778,STARLINK-5450,2022,95.44,260.0,+,53.22,Active,1,LEO,USA,USA,Commercial,Communications,Falcon,1 54778U 22175W   25295.28122866  .00002342  00000+0  16520-3 0  9993,2 54778  53.2162 290.5262 0001410  91.5574 268.5580 15.08837363159233,15.08837363,0.000141,LEO
54779,STARLINK-5447,2022,95.44,260.0,+,53.22,Active,1,LEO,USA,USA,Commercial,Communications,Falcon,1 54779U 22175X   25295.28490826  .00001163  00000+0  91169-4 0  9991,2 54779  53.2170 290.5495 0001404  86.0212 274.0940 15.08837826159238,15.08837826,0.0001404,LEO
54780,STARLINK-5449,2022,95.43,260.0,+,53.22,Active,1,LEO,USA,USA,Commercial,Communications,Falcon,1 54780U 22175Y   25295.39895755 -.00003165  00000+0 -18086-3 0  9997,2 54780  53.2161 289.8361 0001334  88.2311 271.8834 15.08835203159255,15.08835203,0.0001334,LEO
54781,STARLINK-5443,2022,95.44,260.0,+,53.22,Active,1,LEO,USA,USA,Commercial,Communications,Falcon,1 54781U 22175Z   25295.41004213 -.00002559  00000+0 -14288-3 0  9998,2 54781  53.2172 289.9010 0001452  70.8429 289.2720 15.08809314159259,15.08809314,0.0001452,LEO
54783,STARLINK-5439,2022,95.44,260.0,+,53.22,Active,1,LEO,USA,USA,Commercial,Communications,Falcon,1 54783U 22175AB  25295.27385821  .00000961  00000+0  78494-4 0  9994,2 54783  53.2172 290.4784 0001418  93.9576 266.1579 15.08836665159230,15.08836665,0.0001418,LEO
54784,STARLINK-5442,2022,95.44,260.0,+,53.22,Active,1,LEO,USA,USA,Commercial,Communications,Falcon,1 54784U 22175AC  25295.32213269  .00003837  00000+0  25903-3 0  9998,2 54784  53.2169 305.0370 0001537 100.6180 259.4985 15.08842015159030,15.08842015,0.0001537,LEO
54785,STARLINK-5440,2022,95.44,260.0,+,53.22,Active,1,LEO,USA,USA,Commercial,Communications,Falcon,1 54785U 22175AD  25295.25544929  .00001078  00000+0  85787-4 0  9993,2 54785  53.2178 250.4469 0001363 100.4031 259.7115 15.08837108159791,15.08837108,0.0001363,LEO
54787,STARLINK-5441,2022,95.44,260.0,+,53.22,Active,1,LEO,USA,USA,Commercial,Communications,Falcon,1 54787U 22175AF  25295.45092670  .00000174  00000+0  29019-4 0  9990,2 54787  53.2175 304.4176 0001370  83.7873 276.3275 15.08832500159052,15.088325,0.000137,LEO
54788,STARLINK-5399,2022,95.44,260.0,+,53.22,Active,1,LEO,USA,USA,Commercial,Communications,Falcon,1 54788U 22175AG  25295.26280209  .00001279  00000+0  98442-4 0  9990,2 54788  53.2168 290.4102 0001388  95.8307 264.2843 15.08835696159239,15.08835696,0.0001388,LEO
54789,STARLINK-5446,2022,95.44,260.0,+,53.22,Active,1,LEO,USA,USA,Commercial,Communications,Falcon,1 54789U 22175AH  25295.32857186  .00001930  00000+0  13935-3 0  9999,2 54789  53.2171 275.0154 0001435  94.8989 265.2167 15.08835629159458,15.08835629,0.0001435,LEO
54790,STARLINK-5445,2022,95.44,260.0,+,53.22,Active,1,LEO,USA,USA,Commercial,Communications,Falcon,1 54790U 22175AJ  25295.38791032  .00002145  00000+0  15279-3 0  9996,2 54790  53.2166 289.7700 0001339  82.1930 277.9214 15.08840706159255,15.08840706,0.0001339,LEO
54791,STARLINK-5425,2022,95.44,260.0,+,53.22,Active,1,LEO,USA,USA,Commercial,Communications,Falcon,1 54791U 22175AK  25295.40265029  .00000872  00000+0  72834-4 0  9998,2 54791  53.2166 289.8627 0000823  64.5860 295.5217 15.08840388159253,15.08840388,8.23e-05,LEO
54792,STARLINK-5431,2022,95.44,260.0,+,53.22,Active,1,LEO,USA,USA,Commercial,Communications,Falcon,1 54792U 22175AL  25295.44355576  .00000105  00000+0  24718-4 0  9997,2 54792  53.2182 304.3731 0001649  90.8353 269.2828 15.08844799159051,15.08844799,0.0001649,LEO
54793,STARLINK-5433,2022,95.44,260.0,+,53.22,Active,1,LEO,USA,USA,Commercial,Communications,Falcon,1 54793U 22175AM  25295.33733709  .00001664  00000+0  12259-3 0  9991,2 54793  53.2163 280.2211 0001374  88.0684 272.0466 15.08848717159387,15.08848717,0.0001374,LEO
54795,STARLINK-5436,2022,95.44,260.0,+,53.22,Active,1,LEO,USA,USA,Commercial,Communications,Falcon,1 54795U 22175AP  25295.25911676  .00003617  00000+0  24520-3 0  9999,2 54795  53.2156 290.3869 0001353  82.6649 277.4497 15.08843139159230,15.08843139,0.0001353,LEO
54796,STARLINK-5415,2022,95.44,260.0,+,53.22,Active,1,LEO,USA,USA,Commercial,Communications,Falcon,1 54796U 22175AQ  25295.25175050  .00001766  00000+0  12903-3 0  9993,2 54796  53.2171 290.3440 0001532  90.3647 269.7521 15.08840509159236,15.08840509,0.0001532,LEO
